*******************************************************************************
 Revised: July 31, 2013             Moon / (Earth)                          301
 
 GEOPHYSICAL DATA (updated 2018-Aug-15):
  Vol. mean radius, km  = 1737.53+-0.03    Mass, x10^22 kg       =    7.349
  Radius (gravity), km  = 1738.0           Surface emissivity    =    0.92
  Radius (IAU), km      = 1737.4           GM, km^3/s^2          = 4902.800066
  Density, g/cm^3       =    3.3437        GM 1-sigma, km^3/s^2  =  +-0.0001  
  V(1,0)                =   +0.21          Surface accel., m/s^2 =    1.62
  Earth/Moon mass ratio = 81.3005690769    Farside crust. thick. = ~80 - 90 km
  Mean crustal density  = 2.97+-.07 g/cm^3 Nearside crust. thick.= 58+-8 km 
  Heat flow, Apollo 15  = 3.1+-.6 mW/m^2   Mean angular diameter = 31'05.2"
  Heat flow, Apollo 17  = 2.2+-.5 mW/m^2   Sid. rot. rate, rad/s = 0.0000026617
  Geometric Albedo      = 0.12             Mean solar day        = 29.5306 d
  Obliquity to orbit    = 6.67 deg         Orbit period          = 27.321582 d
  Semi-major axis, a    = 384400 km        Eccentricity          = 0.05490
  Mean motion, rad/s    = 2.6616995x10^-6  Inclination           = 5.145 deg
  Apsidal period        = 3231.50 d        Nodal period          = 6798.38 d
                                 Perihelion  Aphelion    Mean
  Solar Constant (W/m^2)         1414+-7     1323+-7     1368+-7
  Maximum Planetary IR (W/m^2)   1314        1226        1268
  Minimum Planetary IR (W/m^2)      5.2         5.2         5.2
********************************************************************************


*******************************************************************************
Ephemeris / WWW_USER Sat Feb 12 07:56:36 2022 Pasadena, USA      / Horizons
*******************************************************************************
Target body name: Moon (301)                      {source: DE441}
Center body name: Earth (399)                     {source: DE441}
Center-site name: BODY CENTER
*******************************************************************************
Start time      : A.D. 2020-Jan-01 00:00:00.0000 TDB
Stop  time      : A.D. 2022-Mar-01 00:00:00.0000 TDB
Step-size       : 360 minutes
*******************************************************************************
Center geodetic : 0.00000000,0.00000000,0.0000000 {E-lon(deg),Lat(deg),Alt(km)}
Center cylindric: 0.00000000,0.00000000,0.0000000 {E-lon(deg),Dxy(km),Dz(km)}
Center radii    : 6378.1 x 6378.1 x 6356.8 km     {Equator, meridian, pole}    
Output units    : AU-D
Output type     : GEOMETRIC cartesian states
Output format   : 2 (position and velocity)
EOP file        : eop.220210.p220505
EOP coverage    : DATA-BASED 1962-JAN-20 TO 2022-FEB-10. PREDICTS-> 2022-MAY-04
Reference frame : ICRF
*******************************************************************************
JDTDB
   X     Y     Z
   VX    VY    VZ
*******************************************************************************
$$SOE
2458969.500000000 = A.D. 2020-Apr-30 00:00:00.0000 TDB 
 X =-1.238498777109224E-03 Y = 1.997276816768101E-03 Z = 9.872407466641000E-04
 VX=-4.993133836731803E-04 VY=-3.090439895281877E-04 VZ=-8.504722214627383E-05
2458969.750000000 = A.D. 2020-Apr-30 06:00:00.0000 TDB 
 X =-1.361127185589912E-03 Y = 1.916648388497105E-03 Z = 9.643043526968578E-04
 VX=-4.814088948991164E-04 VY=-3.358447826364896E-04 VZ=-9.841408593388011E-05
2458970.000000000 = A.D. 2020-Apr-30 12:00:00.0000 TDB 
 X =-1.479051880939910E-03 Y = 1.829428223996438E-03 Z = 9.380506759818990E-04
 VX=-4.616885324045034E-04 VY=-3.617599620436349E-04 VZ=-1.115772438678230E-04
2458970.250000000 = A.D. 2020-Apr-30 18:00:00.0000 TDB 
 X =-1.591822852813517E-03 Y = 1.735851198685067E-03 Z = 9.085368696442394E-04
 VX=-4.401852468703245E-04 VY=-3.866816294104973E-04 VZ=-1.244867012106604E-04
2458970.500000000 = A.D. 2020-May-01 00:00:00.0000 TDB 
 X =-1.698999311776605E-03 Y = 1.636179236464312E-03 Z = 8.758327156711374E-04
 VX=-4.169399297579513E-04 VY=-4.105013691617779E-04 VZ=-1.370914464612154E-04
2458970.750000000 = A.D. 2020-May-01 06:00:00.0000 TDB 
 X =-1.800151730384268E-03 Y = 1.530701380538092E-03 Z = 8.400208592675538E-04
 VX=-3.920018589866815E-04 VY=-4.331107287073155E-04 VZ=-1.493396155201824E-04
2458971.000000000 = A.D. 2020-May-01 12:00:00.0000 TDB 
 X =-1.894863994160340E-03 Y = 1.419733734722548E-03 Z = 8.011969979150572E-04
 VX=-3.654291304813056E-04 VY=-4.544017751534820E-04 VZ=-1.611786904612569E-04
2458971.250000000 = A.D. 2020-May-01 18:00:00.0000 TDB 
 X =-1.982735657368748E-03 Y = 1.303619255543138E-03 Z = 7.594700160756264E-04
 VX=-3.372890626303980E-04 VY=-4.742677328989130E-04 VZ=-1.725557360941359E-04
2458971.500000000 = A.D. 2020-May-02 00:00:00.0000 TDB 
 X =-2.063384294975858E-03 Y = 1.182727374518722E-03 Z = 7.149620557471710E-04
 VX=-3.076585587046125E-04 VY=-4.926037048306274E-04 VZ=-1.834176769745581E-04
2458971.750000000 = A.D. 2020-May-02 06:00:00.0000 TDB 
 X =-2.136447938231286E-03 Y = 1.057453429612712E-03 Z = 6.678085125032572E-04
 VX=-2.766244104479040E-04 VY=-5.093074776788063E-04 VZ=-1.937116167620404E-04
2458972.000000000 = A.D. 2020-May-02 12:00:00.0000 TDB 
 X =-2.201587576896063E-03 Y = 9.282178850124290E-04 Z = 6.181579462935137E-04
 VX=-2.442835244982840E-04 VY=-5.242804094421375E-04 VZ=-2.033852008318953E-04
2458972.250000000 = A.D. 2020-May-02 18:00:00.0000 TDB 
 X =-2.258489706409284E-03 Y = 7.954653193009109E-04 Z = 5.661718962048017E-04
 VX=-2.107430521631880E-04 VY=-5.374283936685371E-04 VZ=-2.123870218035561E-04
2458972.500000000 = A.D. 2020-May-03 00:00:00.0000 TDB 
 X =-2.306868893333708E-03 Y = 6.596631638279631E-04 Z = 5.120245886499602E-04
 VX=-1.761204025321934E-04 VY=-5.486628917927309E-04 VZ=-2.206670661465925E-04
2458972.750000000 = A.D. 2020-May-03 06:00:00.0000 TDB 
 X =-2.346470327425063E-03 Y = 5.213001757705698E-04 Z = 4.559025291212250E-04
 VX=-1.405431190971714E-04 VY=-5.579020208466948E-04 VZ=-2.281771983220021E-04
2458973.000000000 = A.D. 2020-May-03 12:00:00.0000 TDB 
 X =-2.377072323822391E-03 Y = 3.808846340462591E-04 Z = 3.980039687598442E-04
 VX=-1.041486011787697E-04 VY=-5.650716797542133E-04 VZ=-2.348716770244305E-04
2458973.250000000 = A.D. 2020-May-03 18:00:00.0000 TDB 
 X =-2.398488734437436E-03 Y = 2.389422509756137E-04 Z = 3.385382386095224E-04
 VX=-6.708365343544042E-05 VY=-5.701066932292598E-04 VZ=-2.407076960775702E-04
2458973.500000000 = A.D. 2020-May-04 00:00:00.0000 TDB 
 X =-2.410571223796525E-03 Y = 9.601379832263470E-05 Z = 2.777249465299023E-04
 VX=-2.950385021722708E-05 VY=-5.729519483868590E-04 VZ=-2.456459404941296E-04
2458973.750000000 = A.D. 2020-May-04 06:00:00.0000 TDB 
 X =-2.413211361836010E-03 Y =-4.734754697869210E-05 Z = 2.157930343716186E-04
 VX= 8.427294342602982E-06 VY=-5.735634956475480E-04 VZ=-2.496511462735593E-04
2458974.000000000 = A.D. 2020-May-04 12:00:00.0000 TDB 
 X =-2.406342484495872E-03 Y =-1.905791246326722E-04 Z = 1.529796960911669E-04
 VX= 4.653935406686783E-05 VY=-5.719095827305295E-04 VZ=-2.526926507550222E-04
2458974.250000000 = A.D. 2020-May-04 18:00:00.0000 TDB 
 X =-2.389941272895035E-03 Y =-3.331119595025788E-04 Z = 8.952916096665694E-05
 VX= 8.465621327130739E-05 VY=-5.679715887849480E-04 VZ=-2.547449189335063E-04
2458974.500000000 = A.D. 2020-May-05 00:00:00.0000 TDB 
 X =-2.364029003499313E-03 Y =-4.743741476938703E-04 Z = 2.569134984837764E-05
 VX= 1.225974739657705E-04 VY=-5.617448252213420E-04 VZ=-2.557880302339253E-04
2458974.750000000 = A.D. 2020-May-05 06:00:00.0000 TDB 
 X =-2.328672425182468E-03 Y =-6.137944227837265E-04 Z =-3.827958369150166E-05
 VX= 1.601800298815976E-04 VY=-5.532391708163467E-04 VZ=-2.558081099150788E-04
2458975.000000000 = A.D. 2020-May-05 12:00:00.0000 TDB 
 X =-2.283984224516041E-03 Y =-7.508058569714319E-04 Z =-1.021268115213299E-04
 VX= 1.972197817128128E-04 VY=-5.424795113250485E-04 VZ=-2.547976896612695E-04
2458975.250000000 = A.D. 2020-May-05 18:00:00.0000 TDB 
 X =-2.230123047958462E-03 Y =-8.848496449912957E-04 Z =-1.655924689036466E-04
 VX= 2.335334606175161E-04 VY=-5.295059581813034E-04 VZ=-2.527559830786941E-04
2458975.500000000 = A.D. 2020-May-06 00:00:00.0000 TDB 
 X =-2.167293058680684E-03 Y =-1.015378912986549E-03 Z =-2.284193493753688E-04
 VX= 2.689405205861949E-04 VY=-5.143738268134281E-04 VZ=-2.496890637565729E-04
2458975.750000000 = A.D. 2020-May-06 06:00:00.0000 TDB 
 X =-2.095743016284023E-03 Y =-1.141862490566624E-03 Z =-2.903526309254043E-04
 VX= 3.032650551803972E-04 VY=-4.971533624499040E-04 VZ=-2.456099362351096E-04
2458976.000000000 = A.D. 2020-May-06 12:00:00.0000 TDB 
 X =-2.015764879250839E-03 Y =-1.263788582274010E-03 Z =-3.511416058295225E-04
 VX= 3.363376907794522E-04 VY=-4.779292097183903E-04 VZ=-2.405384935452034E-04
2458976.250000000 = A.D. 2020-May-06 18:00:00.0000 TDB 
 X =-1.927691942139387E-03 Y =-1.380668274888832E-03 Z =-4.105413853866529E-04
 VX= 3.679974072121058E-04 VY=-4.567996314150655E-04 VZ=-2.345013587954215E-04
2458976.500000000 = A.D. 2020-May-07 00:00:00.0000 TDB 
 X =-1.831896531721755E-03 Y =-1.492038819493773E-03 Z =-4.683145506777155E-04
 VX= 3.980932378277680E-04 VY=-4.338754909860880E-04 VZ=-2.275316123727630E-04
2458976.750000000 = A.D. 2020-May-07 06:00:00.0000 TDB 
 X =-1.728787297870450E-03 Y =-1.597466631962998E-03 Z =-5.242327213767098E-04
 VX= 4.264858042822784E-04 VY=-4.092790220395090E-04 VZ=-2.196684104482263E-04
2458977.000000000 = A.D. 2020-May-07 12:00:00.0000 TDB 
 X =-1.618806145590228E-03 Y =-1.696549962385370E-03 Z =-5.780780165659497E-04
 VX= 4.530486467472019E-04 VY=-3.831424160113878E-04 VZ=-2.109565044002364E-04
2458977.250000000 = A.D. 2020-May-07 18:00:00.0000 TDB 
 X =-1.502424863434992E-03 Y =-1.788921192516073E-03 Z =-6.296443843555753E-04
 VX= 4.776693179490037E-04 VY=-3.556062655195291E-04 VZ=-2.014456743093601E-04
